{
  "type": "FeatureCollection",
  "features": [
    {
      "type": "Feature",
      "properties": {
        "norad_id": 61182,
        "name": "GSAT0232 (GALILEO 32)",
        "group": "gnss",
        "lat": -17.03666281676065,
        "lon": 58.834107001870976,
        "alt_km": 23218.330332531514,
        "timestamp": "2025-12-08T08:59:01.009560+00:00",
        "meta_object_name": "GSAT0232 (GALILEO 32)",
        "meta_object_id": "2024-167A",
        "meta_epoch": "2025-12-04T05:35:38.594112",
        "meta_mean_motion": 1.70473104,
        "meta_eccentricity": 0.00021975,
        "meta_inclination": 55.2442,
        "meta_ra_of_asc_node": 226.6647,
        "meta_arg_of_pericenter": 213.7297,
        "meta_mean_anomaly": 325.6534,
        "meta_ephemeris_type": 0,
        "meta_classification_type": "U",
        "meta_norad_cat_id": 61182,
        "meta_element_set_no": 999,
        "meta_rev_at_epoch": 755,
        "meta_bstar": 0,
        "meta_mean_motion_dot": 4.1e-07,
        "meta_mean_motion_ddot": 0,
        "tle_line1": "1 61182U 24167A   25338.23308558  .00000041  00000+0  00000+0 0  9996",
        "tle_line2": "2 61182  55.2442 226.6647 0002197 213.7297 325.6534  1.70473104  7557"
      },
      "geometry": {
        "type": "Point",
        "coordinates": [
          58.834107001870976,
          -17.03666281676065
        ]
      }
    },
    {
      "type": "Feature",
      "properties": {
        "norad_id": 61183,
        "name": "GSAT0226 (GALILEO 31)",
        "group": "gnss",
        "lat": -36.57348894624345,
        "lon": -164.41459465632076,
        "alt_km": 23229.045329771165,
        "timestamp": "2025-12-08T08:59:01.009573+00:00",
        "meta_object_name": "GSAT0226 (GALILEO 31)",
        "meta_object_id": "2024-167B",
        "meta_epoch": "2025-12-06T09:26:36.340224",
        "meta_mean_motion": 1.70473292,
        "meta_eccentricity": 7.913e-05,
        "meta_inclination": 55.2417,
        "meta_ra_of_asc_node": 226.6105,
        "meta_arg_of_pericenter": 126.2936,
        "meta_mean_anomaly": 51.6212,
        "meta_ephemeris_type": 0,
        "meta_classification_type": "U",
        "meta_norad_cat_id": 61183,
        "meta_element_set_no": 999,
        "meta_rev_at_epoch": 756,
        "meta_bstar": 0,
        "meta_mean_motion_dot": 3.3e-07,
        "meta_mean_motion_ddot": 0,
        "tle_line1": "1 61183U 24167B   25340.39347616  .00000033  00000+0  00000+0 0  9996",
        "tle_line2": "2 61183  55.2417 226.6105 0000791 126.2936  51.6212  1.70473292  7563"
      },
      "geometry": {
        "type": "Point",
        "coordinates": [
          -164.41459465632076,
          -36.57348894624345
        ]
      }
    },
    {
      "type": "Feature",
      "properties": {
        "norad_id": 61186,
        "name": "BEIDOU-3 M25 (C47)",
        "group": "gnss",
        "lat": 37.389834216749094,
        "lon": -18.315594720728733,
        "alt_km": 21529.477698539267,
        "timestamp": "2025-12-08T08:59:01.009585+00:00",
        "meta_object_name": "BEIDOU-3 M25 (C47)",
        "meta_object_id": "2024-168B",
        "meta_epoch": "2025-12-07T11:49:46.567776",
        "meta_mean_motion": 1.86229795,
        "meta_eccentricity": 0.000545,
        "meta_inclination": 54.6466,
        "meta_ra_of_asc_node": 308.9013,
        "meta_arg_of_pericenter": 295.4181,
        "meta_mean_anomaly": 241.6791,
        "meta_ephemeris_type": 0,
        "meta_classification_type": "U",
        "meta_norad_cat_id": 61186,
        "meta_element_set_no": 999,
        "meta_rev_at_epoch": 821,
        "meta_bstar": 0,
        "meta_mean_motion_dot": -7.2e-07,
        "meta_mean_motion_ddot": 0,
        "tle_line1": "1 61186U 24168B   25341.49290009 -.00000072  00000+0  00000+0 0  9999",
        "tle_line2": "2 61186  54.6466 308.9013 0005450 295.4181 241.6791  1.86229795  8213"
      },
      "geometry": {
        "type": "Point",
        "coordinates": [
          -18.315594720728733,
          37.389834216749094
        ]
      }
    },
    {
      "type": "Feature",
      "properties": {
        "norad_id": 61187,
        "name": "BEIDOU-3 M27 (C49)",
        "group": "gnss",
        "lat": -2.4696234210643713,
        "lon": 130.58766075223664,
        "alt_km": 21534.231748366656,
        "timestamp": "2025-12-08T08:59:01.009596+00:00",
        "meta_object_name": "BEIDOU-3 M27 (C49)",
        "meta_object_id": "2024-168C",
        "meta_epoch": "2025-12-07T02:45:45.916992",
        "meta_mean_motion": 1.86229917,
        "meta_eccentricity": 0.00022869,
        "meta_inclination": 54.6424,
        "meta_ra_of_asc_node": 308.8981,
        "meta_arg_of_pericenter": 332.2687,
        "meta_mean_anomaly": 86.4832,
        "meta_ephemeris_type": 0,
        "meta_classification_type": "U",
        "meta_norad_cat_id": 61187,
        "meta_element_set_no": 999,
        "meta_rev_at_epoch": 568,
        "meta_bstar": 0,
        "meta_mean_motion_dot": -7.1e-07,
        "meta_mean_motion_ddot": 0,
        "tle_line1": "1 61187U 24168C   25341.11511478 -.00000071  00000+0  00000+0 0  9994",
        "tle_line2": "2 61187  54.6424 308.8981 0002286 332.2687  86.4832  1.86229917  5681"
      },
      "geometry": {
        "type": "Point",
        "coordinates": [
          130.58766075223664,
          -2.4696234210643713
        ]
      }
    },
    {
      "type": "Feature",
      "properties": {
        "norad_id": 62339,
        "name": "GPS BIII-7  (PRN 01)",
        "group": "gnss",
        "lat": -9.402065404893643,
        "lon": -24.768766939345674,
        "alt_km": 20151.925563525485,
        "timestamp": "2025-12-08T08:59:01.009607+00:00",
        "meta_object_name": "GPS BIII-7  (PRN 01)",
        "meta_object_id": "2024-242A",
        "meta_epoch": "2025-12-07T03:32:57.244128",
        "meta_mean_motion": 2.00567416,
        "meta_eccentricity": 0.00118981,
        "meta_inclination": 54.925,
        "meta_ra_of_asc_node": 341.9665,
        "meta_arg_of_pericenter": 343.6843,
        "meta_mean_anomaly": 199.2403,
        "meta_ephemeris_type": 0,
        "meta_classification_type": "U",
        "meta_norad_cat_id": 62339,
        "meta_element_set_no": 999,
        "meta_rev_at_epoch": 740,
        "meta_bstar": 0,
        "meta_mean_motion_dot": -8.5e-07,
        "meta_mean_motion_ddot": 0,
        "tle_line1": "1 62339U 24242A   25341.14788477 -.00000085  00000+0  00000+0 0  9990",
        "tle_line2": "2 62339  54.9250 341.9665 0011898 343.6843 199.2403  2.00567416  7402"
      },
      "geometry": {
        "type": "Point",
        "coordinates": [
          -24.768766939345674,
          -9.402065404893643
        ]
      }
    },
    {
      "type": "Feature",
      "properties": {
        "norad_id": 62850,
        "name": "NVS-02 (IRNSS-1K)",
        "group": "gnss",
        "lat": -20.652985821341176,
        "lon": -131.6054978966032,
        "alt_km": 13164.20671664851,
        "timestamp": "2025-12-08T08:59:01.009619+00:00",
        "meta_object_name": "NVS-02 (IRNSS-1K)",
        "meta_object_id": "2025-020A",
        "meta_epoch": "2025-12-07T11:50:13.949664",
        "meta_mean_motion": 2.17588946,
        "meta_eccentricity": 0.7347726,
        "meta_inclination": 20.9974,
        "meta_ra_of_asc_node": 329.5588,
        "meta_arg_of_pericenter": 22.8281,
        "meta_mean_anomaly": 357.6119,
        "meta_ephemeris_type": 0,
        "meta_classification_type": "U",
        "meta_norad_cat_id": 62850,
        "meta_element_set_no": 999,
        "meta_rev_at_epoch": 680,
        "meta_bstar": 0.00028102622,
        "meta_mean_motion_dot": 1.95e-06,
        "meta_mean_motion_ddot": 0,
        "tle_line1": "1 62850U 25020A   25341.49321701  .00000195  00000+0  28103-3 0  9993",
        "tle_line2": "2 62850  20.9974 329.5588 7347726  22.8281 357.6119  2.17588946  6809"
      },
      "geometry": {
        "type": "Point",
        "coordinates": [
          -131.6054978966032,
          -20.652985821341176
        ]
      }
    },
    {
      "type": "Feature",
      "properties": {
        "norad_id": 63130,
        "name": "COSMOS 2584 (704K)",
        "group": "gnss",
        "lat": 8.893384174174578,
        "lon": -104.8841364466237,
        "alt_km": 19115.59970760952,
        "timestamp": "2025-12-08T08:59:01.009635+00:00",
        "meta_object_name": "COSMOS 2584 (704K)",
        "meta_object_id": "2025-042A",
        "meta_epoch": "2025-12-06T17:52:16.826016",
        "meta_mean_motion": 2.13102912,
        "meta_eccentricity": 0.00075908,
        "meta_inclination": 64.9729,
        "meta_ra_of_asc_node": 79.3502,
        "meta_arg_of_pericenter": 215.663,
        "meta_mean_anomaly": 144.2957,
        "meta_ephemeris_type": 0,
        "meta_classification_type": "U",
        "meta_norad_cat_id": 63130,
        "meta_element_set_no": 999,
        "meta_rev_at_epoch": 594,
        "meta_bstar": 0,
        "meta_mean_motion_dot": -1.5e-07,
        "meta_mean_motion_ddot": 0,
        "tle_line1": "1 63130U 25042A   25340.74463919 -.00000015  00000+0  00000+0 0  9998",
        "tle_line2": "2 63130  64.9729  79.3502 0007590 215.6630 144.2957  2.13102912  5943"
      },
      "geometry": {
        "type": "Point",
        "coordinates": [
          -104.8841364466237,
          8.893384174174578
        ]
      }
    }
  ]
}